[
    {
        "Altitude(m)": 605459.0227002461,
        "Argument of Periapsis(deg)": 0.0,
        "Eccentricity": 0.0,
        "Inclination(deg)": 60.0,
        "Latitude(deg)": 27.988194203128458,
        "Longitude(deg)": -152.20136564157426,
        "Mean Anomaly(deg)": 32.72730000000001,
        "RAAN(deg)": 290.0,
        "Satellite Name": "Test1 1278",
        "Satellite Number": 1278,
        "Semi-Major Axis(m)": 6980739.136638005,
        "Time(s)": 0
    },
    {
        "Altitude(m)": 605535.8134637475,
        "Argument of Periapsis(deg)": 0.00010418945913296404,
        "Eccentricity": 0.0,
        "Inclination(deg)": 60.0,
        "Latitude(deg)": 28.50132312759696,
        "Longitude(deg)": -151.84441955465388,
        "Mean Anomaly(deg)": 33.34740614546182,
        "RAAN(deg)": 289.99957995086027,
        "Satellite Name": "Test1 1278",
        "Satellite Number": 1278,
        "Semi-Major Axis(m)": 6980739.136638005,
        "Time(s)": 10
    }
]